{"type":"Topology","arcs":[[[10298,4097],[81,44],[20,22],[60,9],[41,-50],[77,-30],[-35,-124],[-21,-5],[-52,-99],[-48,0],[5,43],[-77,59],[-30,95],[-21,36]],[[12419,2957],[-7,-47],[-21,-22],[-72,61],[-67,14],[-54,-28],[-6,-26],[-82,-49],[-31,-8],[-66,-96],[-53,-11],[-50,17],[-55,-18],[-17,97],[-41,11],[4,34],[37,-5],[71,29],[3,30],[47,41],[39,47],[19,1],[68,40],[2,26],[39,35],[16,-24],[80,-6],[25,33],[44,5],[49,-104],[40,-59],[39,-18]],[[427,2870],[305,0],[168,0],[0,-258],[-165,-3],[-197,0],[0,-391],[-66,-35],[-43,-40],[-16,-41],[8,-40],[8,-182],[-216,0],[-212,0],[-1,70],[28,77],[20,6],[26,92],[72,176],[78,103],[13,120],[41,127],[86,67],[48,152],[15,0]],[[4875,42],[-8,89],[127,0],[0,-90],[-16,-41],[-87,1],[-16,41]]],"transform":{"scale":[0.009202866902327082,0.006388481177852339],"translate":[-16.96690833199989,9.3245448360001]},"objects":{"wb_disputed_areas":{"type":"GeometryCollection","geometries":[{"arcs":[[0]],"type":"Polygon","properties":{"featurecla":"Admin-0 claim area","LEVEL":5,"FORMAL_EN":"","FORMAL_FR":"","POP_EST":1,"POP_RANK":1,"GDP_MD_EST":0,"POP_YEAR":2017,"LASTCENSUS":-99,"GDP_YEAR":2016,"ECONOMY":"3. Emerging region: BRIC","INCOME_GRP":"3. Upper middle income","ISO_A2":"-99","ISO_A3":"-99","ISO_A3_EH":"-99","ISO_N3":"-99","UN_A3":"-099","WB_A2":"-99","WB_A3":"XXX","ADM0_A3_WB":-99,"CONTINENT":"Asia","REGION_UN":"Asia","SUBREGION":"Eastern Asia","REGION_WB":"East Asia & Pacific","NE_ID":1159320487,"WIKIDATAID":"Q230830","NAME_AR":"أكساي تشين","NAME_BN":"আকসাই চীন","NAME_DE":"Aksai Chin","NAME_EN":"Aksai Chin","NAME_ES":"Aksai Chin","NAME_FR":"Aksai Chin","NAME_EL":"Ακσάι Τσιν","NAME_HI":"अक्साई चिन","NAME_HU":"","NAME_ID":"Aksai Chin","NAME_IT":"Aksai Chin","NAME_JA":"アクサイチン","NAME_KO":"아커사이친","NAME_NL":"Aksai Chin","NAME_PL":"Aksai Chin","NAME_PT":"Aksai Chin","NAME_RU":"Аксайчин","NAME_SV":"Aksai Chin","NAME_TR":"Aksai Çin","NAME_VI":"Aksai Chin","NAME_ZH":"阿克赛钦","WB_NAME":"Aksai Chin","WB_RULES":"Fill color should be halfway between India & China","WB_REGION":"Other"}},{"arcs":[[1]],"type":"Polygon","properties":{"featurecla":"Admin-0 claim area","LEVEL":5,"FORMAL_EN":"","FORMAL_FR":"","POP_EST":1382611,"POP_RANK":12,"GDP_MD_EST":706,"POP_YEAR":2013,"LASTCENSUS":-99,"GDP_YEAR":2013,"ECONOMY":"3. Emerging region: BRIC","INCOME_GRP":"4. Lower middle income","ISO_A2":"-99","ISO_A3":"-99","ISO_A3_EH":"-99","ISO_N3":"-99","UN_A3":"-099","WB_A2":"-99","WB_A3":"XXX","ADM0_A3_WB":-99,"CONTINENT":"Asia","REGION_UN":"Asia","SUBREGION":"Southern Asia","REGION_WB":"South Asia","NE_ID":1159320857,"WIKIDATAID":"Q1162","NAME_AR":"أروناجل برديش","NAME_BN":"অরুণাচল প্রদেশ","NAME_DE":"Arunachal Pradesh","NAME_EN":"Arunachal Pradesh","NAME_ES":"Arunachal Pradesh","NAME_FR":"Arunachal Pradesh","NAME_EL":"Αρουνάτσαλ Πραντές","NAME_HI":"अरुणाचल प्रदेश","NAME_HU":"Arunácsal Prades","NAME_ID":"Arunachal Pradesh","NAME_IT":"Arunachal Pradesh","NAME_JA":"アルナーチャル・プラデーシュ州","NAME_KO":"아루나찰프라데시 주","NAME_NL":"Arunachal Pradesh","NAME_PL":"Arunachal Pradesh","NAME_PT":"Arunachal Pradesh","NAME_RU":"Аруначал-Прадеш","NAME_SV":"Arunachal Pradesh","NAME_TR":"Arunaçhal Pradesh","NAME_VI":"Arunachal Pradesh","NAME_ZH":"阿鲁纳恰尔邦","WB_NAME":"Arunachal Pradesh","WB_RULES":"Fill color should be halfway between India & China","WB_REGION":"Other"}},{"arcs":[[2]],"type":"Polygon","properties":{"featurecla":"Admin-0 claim area","LEVEL":2,"FORMAL_EN":"Sahrawi Arab Democratic Republic","FORMAL_FR":"","POP_EST":603253,"POP_RANK":11,"GDP_MD_EST":906.5,"POP_YEAR":2017,"LASTCENSUS":-99,"GDP_YEAR":2007,"ECONOMY":"7. Least developed region","INCOME_GRP":"5. Low income","ISO_A2":"EH","ISO_A3":"ESH","ISO_A3_EH":"ESH","ISO_N3":"732","UN_A3":"732","WB_A2":"-99","WB_A3":"ESH","ADM0_A3_WB":-99,"CONTINENT":"Africa","REGION_UN":"Africa","SUBREGION":"Northern Africa","REGION_WB":"Middle East & North Africa","NE_ID":1159321223,"WIKIDATAID":"Q6250","NAME_AR":"الصحراء الغربية","NAME_BN":"পশ্চিম সাহারা","NAME_DE":"Westsahara","NAME_EN":"Western Sahara","NAME_ES":"Sahara Occidental","NAME_FR":"Sahara occidental","NAME_EL":"Δυτική Σαχάρα","NAME_HI":"पश्चिमी सहारा","NAME_HU":"Nyugat-Szahara","NAME_ID":"Sahara Barat","NAME_IT":"Sahara Occidentale","NAME_JA":"西サハラ","NAME_KO":"서사하라","NAME_NL":"Westelijke Sahara","NAME_PL":"Sahara Zachodnia","NAME_PT":"Saara Ocidental","NAME_RU":"Западная Сахара","NAME_SV":"Västsahara","NAME_TR":"Batı Sahra","NAME_VI":"Tây Sahara","NAME_ZH":"西撒哈拉","WB_NAME":"Western Sahara","WB_RULES":"Name in italic; Always fill color as \"No Data\"","WB_REGION":"Other"}},{"arcs":[[3]],"type":"Polygon","properties":{"featurecla":"Admin-0 claim area","LEVEL":5,"FORMAL_EN":"","FORMAL_FR":"","POP_EST":124390,"POP_RANK":9,"GDP_MD_EST":587.21,"POP_YEAR":2017,"LASTCENSUS":-99,"GDP_YEAR":2016,"ECONOMY":"6. Developing region","INCOME_GRP":"4. Lower middle income","ISO_A2":"-99","ISO_A3":"-99","ISO_A3_EH":"-99","ISO_N3":"-99","UN_A3":"-099","WB_A2":"-99","WB_A3":"XXX","ADM0_A3_WB":-99,"CONTINENT":"Africa","REGION_UN":"Africa","SUBREGION":"Northern Africa","REGION_WB":"Sub-Saharan Africa","NE_ID":1159321231,"WIKIDATAID":"Q336494","NAME_AR":"أبيي","NAME_BN":"","NAME_DE":"Abyei","NAME_EN":"Abyei","NAME_ES":"Abyei","NAME_FR":"Abiyé","NAME_EL":"","NAME_HI":"","NAME_HU":"","NAME_ID":"","NAME_IT":"Abyei","NAME_JA":"アビエイ","NAME_KO":"아비에이","NAME_NL":"Abyei","NAME_PL":"","NAME_PT":"Abyei","NAME_RU":"Абьей","NAME_SV":"Abyei","NAME_TR":"","NAME_VI":"","NAME_ZH":"阿卜耶伊","WB_NAME":"Abyei","WB_RULES":"Name in italic; Fill color should be halfway between Sudan and South Sudan","WB_REGION":"AFR"}},{"type":null,"properties":{"featurecla":"Admin-0 claim area","LEVEL":5,"FORMAL_EN":"","FORMAL_FR":"","POP_EST":-99,"POP_RANK":1,"GDP_MD_EST":0,"POP_YEAR":2017,"LASTCENSUS":-99,"GDP_YEAR":2017,"ECONOMY":"3. Emerging region: BRIC","INCOME_GRP":"4. Lower middle income","ISO_A2":"-99","ISO_A3":"-99","ISO_A3_EH":"-99","ISO_N3":"-99","UN_A3":"-099","WB_A2":"-99","WB_A3":"XXX","ADM0_A3_WB":-99,"CONTINENT":"Asia","REGION_UN":"Asia","SUBREGION":"Southern Asia","REGION_WB":"South Asia","NE_ID":1159320865,"WIKIDATAID":"Q1057797","NAME_AR":"","NAME_BN":"","NAME_DE":"","NAME_EN":"Demchok","NAME_ES":"","NAME_FR":"","NAME_EL":"","NAME_HI":"डेमचोक","NAME_HU":"","NAME_ID":"","NAME_IT":"","NAME_JA":"デムチョク","NAME_KO":"","NAME_NL":"Demchok","NAME_PL":"Demchok","NAME_PT":"","NAME_RU":"Демчок","NAME_SV":"","NAME_TR":"","NAME_VI":"","NAME_ZH":"巴里加斯","WB_NAME":"Demchok","WB_RULES":"Fill color should be halfway between India & China","WB_REGION":"Other"}},{"type":null,"properties":{"featurecla":"Admin-0 indeterminant","LEVEL":2,"FORMAL_EN":"Cyprus No Mans Land","FORMAL_FR":"","POP_EST":10000,"POP_RANK":6,"GDP_MD_EST":280,"POP_YEAR":2013,"LASTCENSUS":-99,"GDP_YEAR":2013,"ECONOMY":"6. Developing region","INCOME_GRP":"2. High income: nonOECD","ISO_A2":"-99","ISO_A3":"-99","ISO_A3_EH":"-99","ISO_N3":"-99","UN_A3":"-099","WB_A2":"-99","WB_A3":"XXX","ADM0_A3_WB":-99,"CONTINENT":"Asia","REGION_UN":"Asia","SUBREGION":"Western Asia","REGION_WB":"Europe & Central Asia","NE_ID":1159320511,"WIKIDATAID":"Q116970","NAME_AR":"مقاطعة الأمم المتحدة العازلة في قبرص","NAME_BN":"সাইপ্রাস জাতিসংঘ বাফার জোন","NAME_DE":"UN-Pufferzone in Zypern","NAME_EN":"United Nations Buffer Zone in Cyprus","NAME_ES":"Línea Verde","NAME_FR":"ligne verte","NAME_EL":"Πράσινη Γραμμή","NAME_HI":"संयुक्त राष्ट्र बफर क्षेत्र","NAME_HU":"Zöld vonal","NAME_ID":"United Nations Buffer Zone di Cyprus","NAME_IT":"Linea Verde","NAME_JA":"グリーンライン","NAME_KO":"유엔 키프로스 완충 지대","NAME_NL":"VN-Bufferzone","NAME_PL":"Zielona linia","NAME_PT":"Linha Verde","NAME_RU":"Зелёная линия","NAME_SV":"FN:s buffertzon på Cypern","NAME_TR":"Yeşil Hat","NAME_VI":"Vùng đệm Liên Hiệp Quốc ở Cộng hòa Síp","NAME_ZH":"賽普勒斯聯合國緩衝區","WB_NAME":"U.N. Buffer Zone in Cyprus","WB_RULES":"","WB_REGION":"Other"}},{"type":null,"properties":{"featurecla":"","LEVEL":0,"FORMAL_EN":"","FORMAL_FR":"","POP_EST":0,"POP_RANK":0,"GDP_MD_EST":0,"POP_YEAR":0,"LASTCENSUS":0,"GDP_YEAR":0,"ECONOMY":"","INCOME_GRP":"","ISO_A2":"","ISO_A3":"","ISO_A3_EH":"","ISO_N3":"","UN_A3":"","WB_A2":"","WB_A3":"","ADM0_A3_WB":0,"CONTINENT":"","REGION_UN":"","SUBREGION":"","REGION_WB":"","NE_ID":0,"WIKIDATAID":"","NAME_AR":"","NAME_BN":"","NAME_DE":"","NAME_EN":"","NAME_ES":"","NAME_FR":"","NAME_EL":"","NAME_HI":"","NAME_HU":"","NAME_ID":"","NAME_IT":"","NAME_JA":"","NAME_KO":"","NAME_NL":"","NAME_PL":"","NAME_PT":"","NAME_RU":"","NAME_SV":"","NAME_TR":"","NAME_VI":"","NAME_ZH":"","WB_NAME":"","WB_RULES":"","WB_REGION":""}}]}}}